#dP2021  7  8 18  0  0.00000000      96 __u+U ITR00 EXT  IAC
## 2165 410400.00000000   900.00000000 59403 0.7500000000000
+  117   C06C07C08C09C10C11C12C13C14C16C19C20C21C22C23C24C25
+        C26C27C28C29C30C32C33C34C35C36C37C38C39C40C41C42C43
+        C44C45C46E01E02E03E04E05E07E08E09E11E12E13E14E15E18
+        E19E21E24E25E26E27E30E31E33E36G01G02G03G04G05G06G07
+        G08G09G10G11G12G13G14G15G16G17G18G19G20G21G22G23G24
+        G25G26G27G28G29G30G31G32J01J02J03R01R02R03R04R05R07
+        R08R09R11R12R13R14R15R16R17R18R19R20R21R22R24  0  0
++        11 10 10 10 10 10 10 11  8 11  8  9 10  8  9  9  8
++         8  9  8  9  7  8  9  8  8 10  8  9 10  9 10  9 10
++        10  8  9  7  8  9  9  7  8  7  9  9  7  9  8  6  8
++         9  7  8  9  8  9  7  9  8  7  8  8  8  8  7  6  9
++         8  7  7  8  9  7  7  8  7  8  7  7  7  7  9  8  8
++         7  9  8  8  8  8  7  8  9  9  9  9  8  8  8  8  8
++         9  9  8  9  8  9 10  7  9  9  7  8  7 11  8  0  0
%c M  cc GPS ccc cccc cccc cccc cccc ccccc ccccc ccccc ccccc
%c cc cc ccc ccc cccc cccc cccc cccc ccccc ccccc ccccc ccccc
%f  0.0000000  0.000000000  0.00000000000  0.000000000000000
%f  0.0000000  0.000000000  0.00000000000  0.000000000000000
%i    0    0    0    0      0      0      0      0         0
%i    0    0    0    0      0      0      0      0         0
/* IAC                                ULTRA-RAPID PREDICTION
/* S/V CLOCKS ARE ALIGNED TO GNSS TIME                      
/* G:C1WC2W R:C1PC2P E:C1XC5X C:C2IC6I J:C1CC2S             
/* PCV:IGS14_2163 OL/AL:FES2004  NONE     YN ORB:CoN CLK:CoN
*  2021 07 09  0 15  0.00000000
PC06  -6857.728260  32466.368676 -25245.933799    600.560558
PC07 -16788.369529  23975.936429  30472.078680    142.202867
PC08 -21799.545712  35649.101251  -6806.470950   -902.065618
PC09   3516.050405  39507.582710 -13334.805261    388.470764
PC10  -2362.857698  26568.051320  32871.133809    -20.835682
PC11  10747.999744  25241.303666  -5182.687106    446.443280
PC12   -857.770311  25128.356537  12160.006720    817.789584
PC13 -12372.066434  36388.031294 -17541.323214    329.549608
PC14  15440.532011  15632.935923 -17214.960339    824.466581
PC16  -4659.376815  33893.478882 -24372.881741   -929.827495
PC19 -23287.699022 -11943.303022   9677.238451    901.953167
PC20  -6886.461724 -16602.396960  21353.100035   -850.731015
PC21 -14488.690767  11544.429759 -20843.874109   -935.271922
PC22 -26699.940162   -217.078081  -8050.563389   -948.420949
PC23  22195.778365  -8275.342159  14767.001877   -963.787221
PC24  -3896.450790  21889.282320  16876.163854   -929.927930
PC25  13817.166266   8757.182808  22605.974236   -888.801191
PC26 -17206.812662  21868.889492   2319.732209    881.488808
PC27   7701.117217 -19335.600729 -18619.175194    561.259655
PC28  16293.110027   -110.343292 -22657.863113    -52.877285
PC29 -16027.584909 -18516.350487  13367.681742    416.913824
PC30  -6014.631045 -26937.003311  -4198.256186    473.424473
PC32  14461.191810 -11660.883349  20844.427238   -924.242885
PC33  23347.506293  11842.310680  -9690.952596   -941.360269
PC34   6482.496912  26913.687263   3419.421065   -632.420280
PC35 -16442.379359    246.518165  22539.313325   -196.142429
PC36 -13323.058916  -9390.566180 -22619.782465   -731.527742
PC37  18212.027345 -21086.024410  -1408.666806   -866.602413
PC38 -19914.838507  36429.999458  -7755.190659    160.466909
PC39  -1715.642630  34585.176426 -23932.914522     32.282014
PC40  -8974.057155  21095.781686  35404.196884    178.694402
PC41  26806.827437    301.649953   7800.717241   -957.001552
PC42   6082.120815  16620.397891 -21537.322868   -917.913565
PC43  15851.863181  18982.445346 -12920.002965   -812.634163
PC44  -7268.525645  19429.102034  18638.965358    279.764933
PC45 -22143.863120   8527.176820 -14687.834130    488.404768
PC46   2912.440504 -21425.354856 -17612.843720    187.802040
PE01 -23356.473094  15297.311046   9832.806627  -1146.066706
PE02  23268.260885 -15347.343209  -9945.580998    231.590904
PE03  13157.112849 -11163.926777  24055.003679   -450.590291
PE04   5629.336205  22175.271889 -18774.144379   -809.284794
PE05  24492.264269   6570.426045  15280.563687   -266.701542
PE07 -21421.591054 -20286.459897   2314.923871   -559.382565
PE08  -6111.725164 -22145.959272  18661.689301   5973.369261
PE09  21644.191920  20094.279772  -2124.688660   5606.879619
PE11   9974.172440  19315.561561 -20098.075245   5745.932886
PE12  -2839.175505  29260.501090  -3390.433667   5120.605895
PE13  -9720.217677 -19680.348378  19857.766306    418.772185
PE14  23715.755901   1444.469080 -22287.139086  -1493.655376
PE15   2740.984049 -29276.232814   3415.564218    804.509567
PE18 -16761.778024   -577.625233  16253.172126  -1636.795343
PE19 -14952.266341   9167.744413 -23834.386684    322.090501
PE21 -28130.816205   4174.362429  -8201.543978   -675.160849
PE24  15994.401860  10563.194001  22543.645792   -997.604083
PE25  28099.549145  -4015.054752   8408.699528   -539.401727
PE26 -16689.473882   2405.821960  24324.272824   1601.402741
PE27 -16864.883492  -9890.734139 -22218.523871    -71.504080
PE30   5449.203479 -18215.408422 -22688.897227   2799.481906
PE31  -4228.637349  18048.144560  23086.939738   -483.046735
PE33 -13560.360370  21611.983712  14999.474540   -467.966807
PE36  16435.827472  -1485.004775 -24576.773002   -231.813798
PG01 -13866.825363  20841.356997   8068.552441    634.074877
PG02  15145.232343    665.325548 -21165.279872   -618.229965
PG03 -19538.577840  12302.397625 -13115.984971   -214.905339
PG04  -8648.685424  13246.060671 -21318.954746   -201.944696
PG05  25934.383499  -6051.504302   1115.697195    -47.336816
PG06   9954.551258  12913.773189 -20899.890124     37.403586
PG07  -5187.373827  25168.292079   5937.957514    197.854251
PG08 -16125.996490   3286.816131  20896.478594    -28.102314
PG09   2239.391841  20736.167147 -16493.341711   -354.704621
PG10 -11189.912229 -12542.740587  20745.864540   -158.219668
PG11  15408.033055   2456.418536 -21509.986164     10.731487
PG12  20794.649217 -10629.883842 -12774.298931    -65.974136
PG13  18397.271655   6009.972988  18118.663463    155.200946
PG14  10833.084801  13162.207355  20373.045475     51.880926
PG15  16016.663402  -5494.583456  20162.746486   -136.872718
PG16 -26479.641596  -1008.785934  -4304.221295   -354.025614
PG17  12442.735826  22996.116681   5076.015788    470.821760
PG18   3866.771124 -24888.579955   8294.129940    342.242001
PG19  17029.901190  19950.283326  -4904.340052     23.801314
PG20  24952.417940  -1454.791174  -8497.358569    520.376958
PG21 -15944.988799  14450.605905  15926.559959    130.077254
PG22 -24046.221278   9956.074133  -4555.042546   -568.417520
PG23   1880.990762 -15490.669422  21463.348305     87.165707
PG24  14884.899355 -17689.533746  12464.930682    166.698970
PG25   9715.363213 -15425.884470 -19484.271354    170.109021
PG26 -21934.824526  -5832.029565 -14069.273166    108.245053
PG27 -20066.833671  -7779.269247  15622.683080   -159.885509
PG28  16229.583439  11299.903224  18186.810442    541.153981
PG29    261.903047 -19935.346809 -17568.705605   -377.104677
PG30   4252.453277  20745.904478  15952.359982   -448.536193
PG31 -11701.561619 -10972.145890 -21180.996935   -127.562301
PG32 -15761.883015 -21392.567792   2215.389641     15.050103
PJ01 -27659.939223  15030.019515 -23436.494678   -411.593416
PJ02 -31072.152204  27369.382436  12659.401316     -0.671432
PJ03 -24696.387858  26686.366982  26349.232065    -10.464648
PR01 -23553.635254  -9759.751264    466.760562     82.037660
PR02 -17916.772956   1483.973682 -18079.284881    485.323952
PR03  -1752.843719  11070.506711 -22865.321412     39.133866
PR04  15232.969156  14120.265021 -14774.305160     94.926819
PR05  23622.335532   9469.130044   1576.963106     74.995367
PR07    991.434833 -11387.372056  22846.368273    -42.100882
PR08 -15237.877462 -14205.328285  14790.677097    -59.867053
PR09  21062.773693 -14021.099543   3553.469756      1.939327
PR11  -2706.667842 -11414.227504 -22638.361170    -19.786600
PR12 -17255.493494   1885.656151 -18666.916217    243.727837
PR13 -21093.909551  13674.817821  -4319.999084    -57.439898
PR14 -12465.163335  17650.989190  13554.340379     66.246562
PR15   3171.042741  11203.951355  22718.689185    102.797705
PR16  17786.317653  -2950.841686  17968.692716    -17.600090
PR17  -1917.034521  23390.394812  10046.221943    439.425738
PR18   5686.075450  23878.189117  -6843.056740     82.770210
PR19   9856.974597  12883.115612 -19695.624307   -150.793176
PR20   9129.175521  -8860.227012 -22116.571974    -52.179856
PR21   1399.854488 -23847.994986  -8910.645860   -222.456064
PR22  -5936.755638 -23591.031310   7806.618966   -121.699335
PR24  -9246.364102   9776.800995  21682.137455     49.687658
EOF
